{
    "links": {
        "self": "http://www.neowsapp.com/rest/v1/neo/3661270?api_key=iIulBulltgU6a56xZRHN4H3l9WmuAYTsLGpBGhQ2"
    },
    "id": "3661270",
    "neo_reference_id": "3661270",
    "name": "(2014 CQ)",
    "designation": "2014 CQ",
    "nasa_jpl_url": "http://ssd.jpl.nasa.gov/sbdb.cgi?sstr=3661270",
    "absolute_magnitude_h": 22.9,
    "estimated_diameter": {
        "kilometers": {
            "estimated_diameter_min": 0.0699125232,
            "estimated_diameter_max": 0.1563291544
        },
        "meters": {
            "estimated_diameter_min": 69.9125232246,
            "estimated_diameter_max": 156.3291544087
        },
        "miles": {
            "estimated_diameter_min": 0.0434416145,
            "estimated_diameter_max": 0.097138403
        },
        "feet": {
            "estimated_diameter_min": 229.3718026961,
            "estimated_diameter_max": 512.8909429502
        }
    },
    "is_potentially_hazardous_asteroid": false,
    "close_approach_data": [
        {
            "close_approach_date": "2014-02-03",
            "close_approach_date_full": "2014-Feb-03 19:33",
            "epoch_date_close_approach": 1391455980000,
            "relative_velocity": {
                "kilometers_per_second": "19.9712844336",
                "kilometers_per_hour": "71896.6239608293",
                "miles_per_hour": "44673.7661494386"
            },
            "miss_distance": {
                "astronomical": "0.1234817041",
                "lunar": "48.0343828949",
                "kilometers": "18472599.917330267",
                "miles": "11478341.3308690046"
            },
            "orbiting_body": "Earth"
        }
    ],
    "orbital_data": {
        "orbit_id": "10",
        "orbit_determination_date": "2017-04-06 08:42:35",
        "first_observation_date": "2014-02-05",
        "last_observation_date": "2014-02-19",
        "data_arc_in_days": 14,
        "observations_used": 62,
        "orbit_uncertainty": "8",
        "minimum_orbit_intersection": ".119917",
        "jupiter_tisserand_invariant": "3.855",
        "epoch_osculation": "2456695.5",
        "eccentricity": ".3651601662900505",
        "semi_major_axis": "1.741323415783452",
        "inclination": "36.41274818688071",
        "ascending_node_longitude": "133.6432144348396",
        "orbital_period": "839.3007031834525",
        "perihelion_distance": "1.105461467711208",
        "perihelion_argument": "1.384641383730024",
        "aphelion_distance": "2.377185363855697",
        "perihelion_time": "2456694.363532930658",
        "mean_anomaly": ".4874631266378121",
        "mean_motion": ".4289285099303819",
        "equinox": "J2000",
        "orbit_class": {
            "orbit_class_type": "AMO",
            "orbit_class_description": "Near-Earth asteroid orbits similar to that of 1221 Amor",
            "orbit_class_range": "1.017 AU < q (perihelion) < 1.3 AU"
        }
    },
    "is_sentry_object": false
}